[{"OBJECT_NAME":"STARLINK-6350","OBJECT_ID":"2023-094J","EPOCH":"2026-03-09T22:00:01.999584","MEAN_MOTION":15.13342785,"ECCENTRICITY":5.601e-5,"INCLINATION":43.0016,"RA_OF_ASC_NODE":28.7492,"ARG_OF_PERICENTER":301.6337,"MEAN_ANOMALY":222.0349,"EPHEMERIS_TYPE":0,"CLASSIFICATION_TYPE":"U","NORAD_CAT_ID":57226,"ELEMENT_SET_NO":999,"REV_AT_EPOCH":577,"BSTAR":0.004124811,"MEAN_MOTION_DOT":0.00075399,"MEAN_MOTION_DDOT":0},{"OBJECT_NAME":"OBJECT B","OBJECT_ID":"2024-094B","EPOCH":"2026-03-09T23:16:02.635680","MEAN_MOTION":15.16281585,"ECCENTRICITY":0.00049641,"INCLINATION":97.3969,"RA_OF_ASC_NODE":142.4807,"ARG_OF_PERICENTER":78.7476,"MEAN_ANOMALY":281.4315,"EPHEMERIS_TYPE":0,"CLASSIFICATION_TYPE":"U","NORAD_CAT_ID":59806,"ELEMENT_SET_NO":999,"REV_AT_EPOCH":10012,"BSTAR":0.00045081306,"MEAN_MOTION_DOT":8.669e-5,"MEAN_MOTION_DDOT":0}]
